{
  "type": "FeatureCollection",
  "features": [
    {
      "type": "Feature",
      "properties": {
        "norad_id": 24946,
        "name": "IRIDIUM 33",
        "group": "iridium-33-debris",
        "lat": 60.87338765031528,
        "lon": 72.98585170394956,
        "alt_km": 772.146413819135,
        "timestamp": "2025-12-16T21:38:57.559527+00:00",
        "meta_object_name": "IRIDIUM 33",
        "meta_object_id": "1997-051C",
        "meta_epoch": "2025-12-16T06:18:14.233536",
        "meta_mean_motion": 14.3504001,
        "meta_eccentricity": 0.00074488,
        "meta_inclination": 86.3869,
        "meta_ra_of_asc_node": 66.743,
        "meta_arg_of_pericenter": 188.078,
        "meta_mean_anomaly": 172.0297,
        "meta_ephemeris_type": 0,
        "meta_classification_type": "U",
        "meta_norad_cat_id": 24946,
        "meta_element_set_no": 999,
        "meta_rev_at_epoch": 47885,
        "meta_bstar": 0.00010841723,
        "meta_mean_motion_dot": 3.29e-06,
        "meta_mean_motion_ddot": 0,
        "tle_line1": "1 24946U 97051C   25350.26266474  .00000329  00000+0  10842-3 0  9990",
        "tle_line2": "2 24946  86.3869  66.7430 0007448 188.0780 172.0297 14.35040010478856"
      },
      "geometry": {
        "type": "Point",
        "coordinates": [
          72.98585170394956,
          60.87338765031528
        ]
      }
    },
    {
      "type": "Feature",
      "properties": {
        "norad_id": 33773,
        "name": "IRIDIUM 33 DEB",
        "group": "iridium-33-debris",
        "lat": 38.566854196610386,
        "lon": -124.0510923926972,
        "alt_km": 735.872055603897,
        "timestamp": "2025-12-16T21:38:57.559569+00:00",
        "meta_object_name": "IRIDIUM 33 DEB",
        "meta_object_id": "1997-051L",
        "meta_epoch": "2025-12-16T06:01:18.969600",
        "meta_mean_motion": 14.43264968,
        "meta_eccentricity": 0.00128109,
        "meta_inclination": 86.4006,
        "meta_ra_of_asc_node": 59.1016,
        "meta_arg_of_pericenter": 136.0899,
        "meta_mean_anomaly": 224.1323,
        "meta_ephemeris_type": 0,
        "meta_classification_type": "U",
        "meta_norad_cat_id": 33773,
        "meta_element_set_no": 999,
        "meta_rev_at_epoch": 88398,
        "meta_bstar": 0.00029252796,
        "meta_mean_motion_dot": 1.005e-05,
        "meta_mean_motion_ddot": 0,
        "tle_line1": "1 33773U 97051L   25350.25091400  .00001005  00000+0  29253-3 0  9990",
        "tle_line2": "2 33773  86.4006  59.1016 0012810 136.0899 224.1323 14.43264968883989"
      },
      "geometry": {
        "type": "Point",
        "coordinates": [
          -124.0510923926972,
          38.566854196610386
        ]
      }
    },
    {
      "type": "Feature",
      "properties": {
        "norad_id": 33775,
        "name": "IRIDIUM 33 DEB",
        "group": "iridium-33-debris",
        "lat": -18.202516235749208,
        "lon": -131.02498334087755,
        "alt_km": 752.9124002704821,
        "timestamp": "2025-12-16T21:38:57.559586+00:00",
        "meta_object_name": "IRIDIUM 33 DEB",
        "meta_object_id": "1997-051N",
        "meta_epoch": "2025-12-16T04:19:16.841856",
        "meta_mean_motion": 14.41475834,
        "meta_eccentricity": 0.00146603,
        "meta_inclination": 86.3635,
        "meta_ra_of_asc_node": 48.0849,
        "meta_arg_of_pericenter": 144.1663,
        "meta_mean_anomaly": 269.5191,
        "meta_ephemeris_type": 0,
        "meta_classification_type": "U",
        "meta_norad_cat_id": 33775,
        "meta_element_set_no": 999,
        "meta_rev_at_epoch": 88190,
        "meta_bstar": 0.00028786237,
        "meta_mean_motion_dot": 9.55e-06,
        "meta_mean_motion_ddot": 0,
        "tle_line1": "1 33775U 97051N   25350.18005604  .00000955  00000+0  28786-3 0  9998",
        "tle_line2": "2 33775  86.3635  48.0849 0014660 144.1663 269.5191 14.41475834881903"
      },
      "geometry": {
        "type": "Point",
        "coordinates": [
          -131.02498334087755,
          -18.202516235749208
        ]
      }
    },
    {
      "type": "Feature",
      "properties": {
        "norad_id": 33776,
        "name": "IRIDIUM 33 DEB",
        "group": "iridium-33-debris",
        "lat": 19.061097922907653,
        "lon": 80.27326225130776,
        "alt_km": 774.3500269719843,
        "timestamp": "2025-12-16T21:38:57.559600+00:00",
        "meta_object_name": "IRIDIUM 33 DEB",
        "meta_object_id": "1997-051P",
        "meta_epoch": "2025-12-16T08:31:09.344064",
        "meta_mean_motion": 14.38241635,
        "meta_eccentricity": 0.00147841,
        "meta_inclination": 86.4039,
        "meta_ra_of_asc_node": 79.2579,
        "meta_arg_of_pericenter": 178.4798,
        "meta_mean_anomaly": 249.9611,
        "meta_ephemeris_type": 0,
        "meta_classification_type": "U",
        "meta_norad_cat_id": 33776,
        "meta_element_set_no": 999,
        "meta_rev_at_epoch": 88134,
        "meta_bstar": 0.00026079496,
        "meta_mean_motion_dot": 8.13e-06,
        "meta_mean_motion_ddot": 0,
        "tle_line1": "1 33776U 97051P   25350.35496926  .00000813  00000+0  26079-3 0  9995",
        "tle_line2": "2 33776  86.4039  79.2579 0014784 178.4798 249.9611 14.38241635881348"
      },
      "geometry": {
        "type": "Point",
        "coordinates": [
          80.27326225130776,
          19.061097922907653
        ]
      }
    },
    {
      "type": "Feature",
      "properties": {
        "norad_id": 33777,
        "name": "IRIDIUM 33 DEB",
        "group": "iridium-33-debris",
        "lat": 66.87622220227566,
        "lon": 41.92195275181225,
        "alt_km": 704.500907739518,
        "timestamp": "2025-12-16T21:38:57.559613+00:00",
        "meta_object_name": "IRIDIUM 33 DEB",
        "meta_object_id": "1997-051Q",
        "meta_epoch": "2025-12-16T03:11:37.077792",
        "meta_mean_motion": 14.55640259,
        "meta_eccentricity": 0.00053723,
        "meta_inclination": 86.3787,
        "meta_ra_of_asc_node": 33.7277,
        "meta_arg_of_pericenter": 233.3111,
        "meta_mean_anomaly": 126.7603,
        "meta_ephemeris_type": 0,
        "meta_classification_type": "U",
        "meta_norad_cat_id": 33777,
        "meta_element_set_no": 999,
        "meta_rev_at_epoch": 88583,
        "meta_bstar": 0.00058222602,
        "meta_mean_motion_dot": 2.562e-05,
        "meta_mean_motion_ddot": 0,
        "tle_line1": "1 33777U 97051Q   25350.13306803  .00002562  00000+0  58223-3 0  9995",
        "tle_line2": "2 33777  86.3787  33.7277 0005372 233.3111 126.7603 14.55640259885836"
      },
      "geometry": {
        "type": "Point",
        "coordinates": [
          41.92195275181225,
          66.87622220227566
        ]
      }
    },
    {
      "type": "Feature",
      "properties": {
        "norad_id": 33850,
        "name": "IRIDIUM 33 DEB",
        "group": "iridium-33-debris",
        "lat": -9.218484999251192,
        "lon": -151.01493960632956,
        "alt_km": 748.8012655078355,
        "timestamp": "2025-12-16T21:38:57.559625+00:00",
        "meta_object_name": "IRIDIUM 33 DEB",
        "meta_object_id": "1997-051T",
        "meta_epoch": "2025-12-16T04:25:52.222080",
        "meta_mean_motion": 14.42153252,
        "meta_eccentricity": 0.00125363,
        "meta_inclination": 86.3417,
        "meta_ra_of_asc_node": 28.6985,
        "meta_arg_of_pericenter": 150.6502,
        "meta_mean_anomaly": 276.0597,
        "meta_ephemeris_type": 0,
        "meta_classification_type": "U",
        "meta_norad_cat_id": 33850,
        "meta_element_set_no": 999,
        "meta_rev_at_epoch": 88202,
        "meta_bstar": 0.00027932452,
        "meta_mean_motion_dot": 9.39e-06,
        "meta_mean_motion_ddot": 0,
        "tle_line1": "1 33850U 97051T   25350.18463220  .00000939  00000+0  27932-3 0  9998",
        "tle_line2": "2 33850  86.3417  28.6985 0012536 150.6502 276.0597 14.42153252882029"
      },
      "geometry": {
        "type": "Point",
        "coordinates": [
          -151.01493960632956,
          -9.218484999251192
        ]
      }
    },
    {
      "type": "Feature",
      "properties": {
        "norad_id": 33853,
        "name": "IRIDIUM 33 DEB",
        "group": "iridium-33-debris",
        "lat": -69.89700199352987,
        "lon": -23.035605213249838,
        "alt_km": 842.3983417603786,
        "timestamp": "2025-12-16T21:38:57.559639+00:00",
        "meta_object_name": "IRIDIUM 33 DEB",
        "meta_object_id": "1997-051W",
        "meta_epoch": "2025-12-16T06:35:32.599968",
        "meta_mean_motion": 13.99083268,
        "meta_eccentricity": 0.02070226,
        "meta_inclination": 85.9997,
        "meta_ra_of_asc_node": 348.2614,
        "meta_arg_of_pericenter": 224.87,
        "meta_mean_anomaly": 144.759,
        "meta_ephemeris_type": 0,
        "meta_classification_type": "U",
        "meta_norad_cat_id": 33853,
        "meta_element_set_no": 999,
        "meta_rev_at_epoch": 85395,
        "meta_bstar": 0.0013856759,
        "meta_mean_motion_dot": 2.425e-05,
        "meta_mean_motion_ddot": 0,
        "tle_line1": "1 33853U 97051W   25350.27468287  .00002425  00000+0  13857-2 0  9991",
        "tle_line2": "2 33853  85.9997 348.2614 0207022 224.8700 144.7590 13.99083268853954"
      },
      "geometry": {
        "type": "Point",
        "coordinates": [
          -23.035605213249838,
          -69.89700199352987
        ]
      }
    }
  ]
}